STARLINK-11407 [DTC]    
1 61939U 24209A   26195.02670525  .00114138  00000+0  93349-3 0  9993
2 61939  53.1576 108.2438 0001381  52.9482 307.1661 15.69724412 96589
STARLINK-11337 [DTC]    
1 61940U 24209B   26195.08546920  .00135389  00000+0  11037-2 0  9996
2 61940  53.1573 107.8963 0001499 109.7861 250.3318 15.69721683 96572
STARLINK-11353 [DTC]    
1 61941U 24209C   26195.01691235  .00139464  00000+0  11383-2 0  9992
2 61941  53.1577 108.1781 0001129 104.3940 255.7203 15.69677696 96529
STARLINK-11320 [DTC]    
1 61942U 24209D   26195.01208927  .00097679  00000+0  80175-3 0  9992
2 61942  53.1573 108.8786 0001102 106.6989 253.4150 15.69706584 96511
STARLINK-11425 [DTC]    
1 61943U 24209E   26195.00718308  .00105920  00000+0  86788-3 0  9996
2 61943  53.1569 108.8460 0000600  79.2277 280.8808 15.69713430 96515
STARLINK-11422 [DTC]    
1 61944U 24209F   26195.06594821  .00121635  00000+0  99368-3 0  9994
2 61944  53.1584 108.5049 0001343  75.9239 284.1928 15.69722160 96520
STARLINK-11421 [DTC]    
1 61945U 24209G   26195.18838733  .00111620  00000+0  91283-3 0  9992
2 61945  53.1581 107.8405 0002867  12.0588 348.0498 15.69733685 96545
STARLINK-11410 [DTC]    
1 61946U 24209H   26195.18347405  .00094607  00000+0  77540-3 0  9999
2 61946  53.1577 107.8055 0000937 122.1957 237.9152 15.69755831 96585
STARLINK-11390 [DTC]    
1 61947U 24209J   26195.05123208  .00125372  00000+0  10238-2 0  9993
2 61947  53.1576 108.4037 0000949 109.3693 250.7428 15.69717951 96567
STARLINK-11414 [DTC]    
1 61948U 24209K   26195.09527794  .00103918  00000+0  85150-3 0  9994
2 61948  53.1578 107.9556 0001364 118.9782 241.1373 15.69721121 96575
STARLINK-11424 [DTC]    
1 61949U 24209L   26195.03651476  .00113676  00000+0  92960-3 0  9993
2 61949  53.1577 108.3037 0001156  96.8702 263.2447 15.69729223 96522
STARLINK-11423 [DTC]    
1 61950U 24209M   26195.04632485  .00116910  00000+0  95620-3 0  9995
2 61950  53.1574 108.3720 0001328  86.5631 273.5538 15.69712282 96564
STARLINK-11395 [DTC]    
1 61951U 24209N   26195.04141994  .00101198  00000+0  82918-3 0  9994
2 61951  53.1574 108.3344 0001122  83.3362 276.7784 15.69733869 96523
STARLINK-32572          
1 61952U 24209P   26194.51141588  .00007636  00000+0  26949-3 0  9999
2 61952  53.1585 277.7738 0000689  63.2601 296.8471 15.30220237 94166
STARLINK-32585          
1 61953U 24209Q   26195.16668980  .00036628  00000+0  10907-2 0  9991
2 61953  53.1591 267.4338 0000702  84.3692  15.1323 15.34378299  5915
STARLINK-32574          
1 61954U 24209R   26195.21283875  .00011707  00000+0  34610-3 0  9993
2 61954  53.1594 267.2085 0001818 319.8573  40.2296 15.35390996 94396
STARLINK-32583          
1 61955U 24209S   26195.01632245  .00009718  00000+0  29830-3 0  9998
2 61955  53.1593 268.1082 0001272  57.0728 303.0397 15.34407813 94354
STARLINK-32273          
1 61956U 24209T   26194.51668824  .00009309  00000+0  32593-3 0  9991
2 61956  53.1590 277.8014 0000935  93.0153 267.0955 15.30210953 94162
STARLINK-32359          
1 61957U 24209U   26194.55405987  .00008835  00000+0  27227-3 0  9996
2 61957  53.1598 270.2025 0000595  85.5034 274.6037 15.34402760 94298
STARLINK-32566          
1 61958U 24209V   26195.20752634  .00008176  00000+0  25288-3 0  9997
2 61958  53.1579 267.1737 0001113 135.2484 224.8609 15.34393768 94392
STARLINK-32499          
1 61959U 24210A   26195.00987404  .00007462  00000+0  28037-3 0  9995
2 61959  42.9979 186.0340 0000817 256.1294 103.9467 15.27583091 94249
STARLINK-32372          
1 61960U 24210B   26195.01758264  .00008744  00000+0  32676-3 0  9996
2 61960  43.0005 186.0929 0000727 256.6701 103.4070 15.27591841 94106
STARLINK-32452          
1 61961U 24210C   26195.02754752  .00007960  00000+0  29846-3 0  9990
2 61961  42.9966 179.2457 0001582 277.2188  82.8484 15.27581089 94314
STARLINK-32458          
1 61962U 24210D   26195.00282766  .00007905  00000+0  29633-3 0  9993
2 61962  43.0005 172.1350 0002410 276.6187  83.4390 15.27594983 94396
STARLINK-32487          
1 61963U 24210E   26194.98175086  .00008492  00000+0  31766-3 0  9998
2 61963  43.0005 186.6795 0003963 291.2081  68.8347 15.27586364 94225
STARLINK-32513          
1 61964U 24210F   26194.40276926  .00008004  00000+0  29994-3 0  9990
2 61964  43.0016 175.3750 0001561 274.9179  85.1494 15.27594005 94307
STARLINK-32514          
1 61965U 24210G   26194.96600049  .00013041  00000+0  48253-3 0  9995
2 61965  42.9987 179.6448 0001798 255.3007 104.7645 15.27582973 94306
STARLINK-32498          
1 61966U 24210H   26194.32324763  .00010860  00000+0  40340-3 0  9997
2 61966  43.0010 175.6314 0001476 269.1498  90.9185 15.27594192 94293
STARLINK-32518          
1 61967U 24210J   26195.12245480  .00014226  00000+0  52529-3 0  9997
2 61967  42.9997 178.9044 0001191 257.7156 102.3562 15.27591906 94196
STARLINK-32471          
1 61968U 24210K   26195.02112269  .00006679  00000+0  25196-3 0  9998
2 61968  43.0004 179.2006 0001135 235.6126 124.4619 15.27587124 94320
