OBJECT_NAME,OBJECT_ID,EPOCH,MEAN_MOTION,ECCENTRICITY,INCLINATION,RA_OF_ASC_NODE,ARG_OF_PERICENTER,MEAN_ANOMALY,EPHEMERIS_TYPE,CLASSIFICATION_TYPE,NORAD_CAT_ID,ELEMENT_SET_NO,REV_AT_EPOCH,BSTAR,MEAN_MOTION_DOT,MEAN_MOTION_DDOT
STARLINK-11407 [DTC],2024-209A,2026-07-14T00:38:27.333600,15.69724412,.0001381,53.1576,108.2438,52.9482,307.1661,0,U,61939,999,9658,.93349E-3,.114138E-2,0
STARLINK-11337 [DTC],2024-209B,2026-07-14T02:03:04.538880,15.69721683,.0001499,53.1573,107.8963,109.7861,250.3318,0,U,61940,999,9657,.11037E-2,.135389E-2,0
STARLINK-11353 [DTC],2024-209C,2026-07-14T00:24:21.227040,15.69677696,.0001129,53.1577,108.1781,104.3940,255.7203,0,U,61941,999,9652,.11383E-2,.139464E-2,0
STARLINK-11320 [DTC],2024-209D,2026-07-14T00:17:24.512928,15.69706584,.0001102,53.1573,108.8786,106.6989,253.4150,0,U,61942,999,9651,.80175E-3,.97679E-3,0
STARLINK-11425 [DTC],2024-209E,2026-07-14T00:10:20.618112,15.69713430,.00006,53.1569,108.8460,79.2277,280.8808,0,U,61943,999,9651,.86788E-3,.10592E-2,0
STARLINK-11422 [DTC],2024-209F,2026-07-14T01:34:57.925344,15.69722160,.0001343,53.1584,108.5049,75.9239,284.1928,0,U,61944,999,9652,.99368E-3,.121635E-2,0
STARLINK-11421 [DTC],2024-209G,2026-07-14T04:31:16.665312,15.69733685,.0002867,53.1581,107.8405,12.0588,348.0498,0,U,61945,999,9654,.91283E-3,.11162E-2,0
STARLINK-11410 [DTC],2024-209H,2026-07-14T04:24:12.157920,15.69755831,.0000937,53.1577,107.8055,122.1957,237.9152,0,U,61946,999,9658,.7754E-3,.94607E-3,0
STARLINK-11390 [DTC],2024-209J,2026-07-14T01:13:46.451712,15.69717951,.0000949,53.1576,108.4037,109.3693,250.7428,0,U,61947,999,9656,.10238E-2,.125372E-2,0
STARLINK-11414 [DTC],2024-209K,2026-07-14T02:17:12.014016,15.69721121,.0001364,53.1578,107.9556,118.9782,241.1373,0,U,61948,999,9657,.8515E-3,.103918E-2,0
STARLINK-11424 [DTC],2024-209L,2026-07-14T00:52:34.875264,15.69729223,.0001156,53.1577,108.3037,96.8702,263.2447,0,U,61949,999,9652,.9296E-3,.113676E-2,0
STARLINK-11423 [DTC],2024-209M,2026-07-14T01:06:42.467040,15.69712282,.0001328,53.1574,108.3720,86.5631,273.5538,0,U,61950,999,9656,.9562E-3,.11691E-2,0
STARLINK-11395 [DTC],2024-209N,2026-07-14T00:59:38.682816,15.69733869,.0001122,53.1574,108.3344,83.3362,276.7784,0,U,61951,999,9652,.82918E-3,.101198E-2,0
STARLINK-32572,2024-209P,2026-07-13T12:16:26.332032,15.30220237,.0000689,53.1585,277.7738,63.2601,296.8471,0,U,61952,999,9416,.26949E-3,.7636E-4,0
STARLINK-32585,2024-209Q,2026-07-14T04:00:01.998720,15.34378299,.0000702,53.1591,267.4338,84.3692,15.1323,0,U,61953,999,591,.10907E-2,.36628E-3,0
STARLINK-32574,2024-209R,2026-07-14T05:06:29.268000,15.35390996,.0001818,53.1594,267.2085,319.8573,40.2296,0,U,61954,999,9439,.3461E-3,.11707E-3,0
STARLINK-32583,2024-209S,2026-07-14T00:23:30.259680,15.34407813,.0001272,53.1593,268.1082,57.0728,303.0397,0,U,61955,999,9435,.2983E-3,.9718E-4,0
STARLINK-32273,2024-209T,2026-07-13T12:24:01.863936,15.30210953,.0000935,53.1590,277.8014,93.0153,267.0955,0,U,61956,999,9416,.32593E-3,.9309E-4,0
STARLINK-32359,2024-209U,2026-07-13T13:17:50.772768,15.34402760,.0000595,53.1598,270.2025,85.5034,274.6037,0,U,61957,999,9429,.27227E-3,.8835E-4,0
STARLINK-32566,2024-209V,2026-07-14T04:58:50.275776,15.34393768,.0001113,53.1579,267.1737,135.2484,224.8609,0,U,61958,999,9439,.25288E-3,.8176E-4,0
STARLINK-32499,2024-210A,2026-07-14T00:14:13.117056,15.27583091,.0000817,42.9979,186.0340,256.1294,103.9467,0,U,61959,999,9424,.28037E-3,.7462E-4,0
STARLINK-32372,2024-210B,2026-07-14T00:25:19.140096,15.27591841,.0000727,43.0005,186.0929,256.6701,103.4070,0,U,61960,999,9410,.32676E-3,.8744E-4,0
STARLINK-32452,2024-210C,2026-07-14T00:39:40.105728,15.27581089,.0001582,42.9966,179.2457,277.2188,82.8484,0,U,61961,999,9431,.29846E-3,.796E-4,0
STARLINK-32458,2024-210D,2026-07-14T00:04:04.309824,15.27594983,.000241,43.0005,172.1350,276.6187,83.4390,0,U,61962,999,9439,.29633E-3,.7905E-4,0
STARLINK-32487,2024-210E,2026-07-13T23:33:43.274304,15.27586364,.0003963,43.0005,186.6795,291.2081,68.8347,0,U,61963,999,9422,.31766E-3,.8492E-4,0
STARLINK-32513,2024-210F,2026-07-13T09:39:59.264064,15.27594005,.00015611,43.0016,175.3750,274.9179,85.1494,0,U,61964,999,9430,.29993841E-3,.8004E-4,0
STARLINK-32514,2024-210G,2026-07-13T23:11:02.442336,15.27582973,.0001798,42.9987,179.6448,255.3007,104.7645,0,U,61965,999,9430,.48253E-3,.13041E-3,0
STARLINK-32498,2024-210H,2026-07-13T07:45:28.595232,15.27594192,.00014763,43.0010,175.6314,269.1498,90.9185,0,U,61966,999,9429,.40340324E-3,.1086E-3,0
STARLINK-32518,2024-210J,2026-07-14T02:56:20.094720,15.27591906,.0001191,42.9997,178.9044,257.7156,102.3562,0,U,61967,999,9419,.52529E-3,.14226E-3,0
STARLINK-32471,2024-210K,2026-07-14T00:30:25.000416,15.27587124,.0001135,43.0004,179.2006,235.6126,124.4619,0,U,61968,999,9432,.25196E-3,.6679E-4,0
